[{"OBJECT_NAME":"STARLINK-11490 [DTC]","OBJECT_ID":"2024-231B","EPOCH":"2025-09-29T02:47:42.357408","MEAN_MOTION":15.69793065,"ECCENTRICITY":0.00012336,"INCLINATION":53.1561,"RA_OF_ASC_NODE":177.8344,"ARG_OF_PERICENTER":81.8884,"MEAN_ANOMALY":278.2274,"EPHEMERIS_TYPE":0,"CLASSIFICATION_TYPE":"U","NORAD_CAT_ID":62219,"ELEMENT_SET_NO":999,"REV_AT_EPOCH":4803,"BSTAR":0.0021373373,"MEAN_MOTION_DOT":0.002678,"MEAN_MOTION_DDOT":0},{"OBJECT_NAME":"STARLINK-11466 [DTC]","OBJECT_ID":"2024-231C","EPOCH":"2025-09-29T06:05:12.061248","MEAN_MOTION":15.69791689,"ECCENTRICITY":8.564e-5,"INCLINATION":53.1567,"RA_OF_ASC_NODE":177.2707,"ARG_OF_PERICENTER":118.0544,"MEAN_ANOMALY":242.056,"EPHEMERIS_TYPE":0,"CLASSIFICATION_TYPE":"U","NORAD_CAT_ID":62220,"ELEMENT_SET_NO":999,"REV_AT_EPOCH":4805,"BSTAR":0.0017562264,"MEAN_MOTION_DOT":0.00218617,"MEAN_MOTION_DDOT":0},{"OBJECT_NAME":"STARLINK-11468 [DTC]","OBJECT_ID":"2024-231D","EPOCH":"2025-09-29T04:47:40.117632","MEAN_MOTION":15.69833397,"ECCENTRICITY":0.00011669,"INCLINATION":53.1564,"RA_OF_ASC_NODE":177.6497,"ARG_OF_PERICENTER":117.5157,"MEAN_ANOMALY":242.598,"EPHEMERIS_TYPE":0,"CLASSIFICATION_TYPE":"U","NORAD_CAT_ID":62221,"ELEMENT_SET_NO":999,"REV_AT_EPOCH":4804,"BSTAR":0.0024339627,"MEAN_MOTION_DOT":0.00307026,"MEAN_MOTION_DDOT":0},{"OBJECT_NAME":"STARLINK-11488 [DTC]","OBJECT_ID":"2024-231E","EPOCH":"2025-09-29T05:58:08.030784","MEAN_MOTION":15.6979147,"ECCENTRICITY":0.00014076,"INCLINATION":53.1571,"RA_OF_ASC_NODE":177.2372,"ARG_OF_PERICENTER":138.1039,"MEAN_ANOMALY":222.0087,"EPHEMERIS_TYPE":0,"CLASSIFICATION_TYPE":"U","NORAD_CAT_ID":62222,"ELEMENT_SET_NO":999,"REV_AT_EPOCH":4805,"BSTAR":0.0018429671,"MEAN_MOTION_DOT":0.00229751,"MEAN_MOTION_DDOT":0},{"OBJECT_NAME":"STARLINK-11483 [DTC]","OBJECT_ID":"2024-231F","EPOCH":"2025-09-29T05:08:41.250048","MEAN_MOTION":15.69776995,"ECCENTRICITY":9.889e-5,"INCLINATION":53.1563,"RA_OF_ASC_NODE":177.0092,"ARG_OF_PERICENTER":116.0111,"MEAN_ANOMALY":244.1009,"EPHEMERIS_TYPE":0,"CLASSIFICATION_TYPE":"U","NORAD_CAT_ID":62223,"ELEMENT_SET_NO":999,"REV_AT_EPOCH":4805,"BSTAR":0.0013425615,"MEAN_MOTION_DOT":0.00165811,"MEAN_MOTION_DDOT":0},{"OBJECT_NAME":"STARLINK-11492 [DTC]","OBJECT_ID":"2024-231G","EPOCH":"2025-09-29T06:12:15.937920","MEAN_MOTION":15.69822442,"ECCENTRICITY":7.499e-5,"INCLINATION":53.1568,"RA_OF_ASC_NODE":177.3144,"ARG_OF_PERICENTER":136.3414,"MEAN_ANOMALY":223.7664,"EPHEMERIS_TYPE":0,"CLASSIFICATION_TYPE":"U","NORAD_CAT_ID":62224,"ELEMENT_SET_NO":999,"REV_AT_EPOCH":4805,"BSTAR":0.0022994263,"MEAN_MOTION_DOT":0.00289268,"MEAN_MOTION_DDOT":0},{"OBJECT_NAME":"STARLINK-11471 [DTC]","OBJECT_ID":"2024-231H","EPOCH":"2025-09-28T21:37:20.242272","MEAN_MOTION":15.69739214,"ECCENTRICITY":9.7e-5,"INCLINATION":53.1564,"RA_OF_ASC_NODE":178.6225,"ARG_OF_PERICENTER":76.1246,"MEAN_ANOMALY":283.9879,"EPHEMERIS_TYPE":0,"CLASSIFICATION_TYPE":"U","NORAD_CAT_ID":62225,"ELEMENT_SET_NO":999,"REV_AT_EPOCH":4800,"BSTAR":0.0034195813,"MEAN_MOTION_DOT":0.00436806,"MEAN_MOTION_DDOT":0},{"OBJECT_NAME":"STARLINK-11475 [DTC]","OBJECT_ID":"2024-231J","EPOCH":"2025-09-28T21:44:23.998848","MEAN_MOTION":15.69726315,"ECCENTRICITY":0.00010471,"INCLINATION":53.1566,"RA_OF_ASC_NODE":178.6406,"ARG_OF_PERICENTER":52.0135,"MEAN_ANOMALY":308.0978,"EPHEMERIS_TYPE":0,"CLASSIFICATION_TYPE":"U","NORAD_CAT_ID":62226,"ELEMENT_SET_NO":999,"REV_AT_EPOCH":4800,"BSTAR":0.0027891676,"MEAN_MOTION_DOT":0.00352308,"MEAN_MOTION_DDOT":0},{"OBJECT_NAME":"STARLINK-11469 [DTC]","OBJECT_ID":"2024-231K","EPOCH":"2025-09-29T04:05:15.655776","MEAN_MOTION":15.69800457,"ECCENTRICITY":0.00011332,"INCLINATION":53.1567,"RA_OF_ASC_NODE":177.4509,"ARG_OF_PERICENTER":123.354,"MEAN_ANOMALY":236.7586,"EPHEMERIS_TYPE":0,"CLASSIFICATION_TYPE":"U","NORAD_CAT_ID":62227,"ELEMENT_SET_NO":999,"REV_AT_EPOCH":4804,"BSTAR":0.0020772118,"MEAN_MOTION_DOT":0.00260085,"MEAN_MOTION_DDOT":0},{"OBJECT_NAME":"STARLINK-11476 [DTC]","OBJECT_ID":"2024-231L","EPOCH":"2025-09-28T21:23:12.473376","MEAN_MOTION":15.69727617,"ECCENTRICITY":0.00012536,"INCLINATION":53.1559,"RA_OF_ASC_NODE":178.5449,"ARG_OF_PERICENTER":39.597,"MEAN_ANOMALY":320.5139,"EPHEMERIS_TYPE":0,"CLASSIFICATION_TYPE":"U","NORAD_CAT_ID":62228,"ELEMENT_SET_NO":999,"REV_AT_EPOCH":4801,"BSTAR":0.0030171313,"MEAN_MOTION_DOT":0.00382583,"MEAN_MOTION_DDOT":0},{"OBJECT_NAME":"STARLINK-11485 [DTC]","OBJECT_ID":"2024-231M","EPOCH":"2025-09-29T00:54:49.400928","MEAN_MOTION":15.69808296,"ECCENTRICITY":4.874e-5,"INCLINATION":53.1566,"RA_OF_ASC_NODE":178.0458,"ARG_OF_PERICENTER":74.932,"MEAN_ANOMALY":285.1752,"EPHEMERIS_TYPE":0,"CLASSIFICATION_TYPE":"U","NORAD_CAT_ID":62229,"ELEMENT_SET_NO":999,"REV_AT_EPOCH":4802,"BSTAR":0.0019181032,"MEAN_MOTION_DOT":0.00239603,"MEAN_MOTION_DDOT":0},{"OBJECT_NAME":"STARLINK-11481 [DTC]","OBJECT_ID":"2024-231N","EPOCH":"2025-09-29T06:26:23.297280","MEAN_MOTION":15.69800284,"ECCENTRICITY":7.24e-5,"INCLINATION":53.1564,"RA_OF_ASC_NODE":177.3624,"ARG_OF_PERICENTER":109.8033,"MEAN_ANOMALY":250.3063,"EPHEMERIS_TYPE":0,"CLASSIFICATION_TYPE":"U","NORAD_CAT_ID":62230,"ELEMENT_SET_NO":999,"REV_AT_EPOCH":4805,"BSTAR":0.0019229233,"MEAN_MOTION_DOT":0.0024014,"MEAN_MOTION_DDOT":0},{"OBJECT_NAME":"STARLINK-32650","OBJECT_ID":"2024-231P","EPOCH":"2025-09-29T05:12:54.692352","MEAN_MOTION":15.301897,"ECCENTRICITY":0.00012658,"INCLINATION":53.1573,"RA_OF_ASC_NODE":249.8391,"ARG_OF_PERICENTER":105.6332,"MEAN_ANOMALY":254.4809,"EPHEMERIS_TYPE":0,"CLASSIFICATION_TYPE":"U","NORAD_CAT_ID":62231,"ELEMENT_SET_NO":999,"REV_AT_EPOCH":4704,"BSTAR":0.0015139026,"MEAN_MOTION_DOT":0.00044734,"MEAN_MOTION_DDOT":0},{"OBJECT_NAME":"STARLINK-32636","OBJECT_ID":"2024-231Q","EPOCH":"2025-09-29T05:49:13.315872","MEAN_MOTION":15.30186868,"ECCENTRICITY":0.00014491,"INCLINATION":53.1581,"RA_OF_ASC_NODE":249.288,"ARG_OF_PERICENTER":82.059,"MEAN_ANOMALY":278.0575,"EPHEMERIS_TYPE":0,"CLASSIFICATION_TYPE":"U","NORAD_CAT_ID":62232,"ELEMENT_SET_NO":999,"REV_AT_EPOCH":4705,"BSTAR":0.00038056515,"MEAN_MOTION_DOT":0.00010924,"MEAN_MOTION_DDOT":0},{"OBJECT_NAME":"STARLINK-32643","OBJECT_ID":"2024-231R","EPOCH":"2025-09-29T04:32:02.146272","MEAN_MOTION":15.39607223,"ECCENTRICITY":0.00014276,"INCLINATION":53.1583,"RA_OF_ASC_NODE":238.2999,"ARG_OF_PERICENTER":96.99,"MEAN_ANOMALY":263.1267,"EPHEMERIS_TYPE":0,"CLASSIFICATION_TYPE":"U","NORAD_CAT_ID":62233,"ELEMENT_SET_NO":999,"REV_AT_EPOCH":4719,"BSTAR":0.0019731936,"MEAN_MOTION_DOT":0.00079318,"MEAN_MOTION_DDOT":0},{"OBJECT_NAME":"STARLINK-32652","OBJECT_ID":"2024-231S","EPOCH":"2025-09-29T06:22:38.481024","MEAN_MOTION":15.30245338,"ECCENTRICITY":0.0001175,"INCLINATION":53.1595,"RA_OF_ASC_NODE":249.427,"ARG_OF_PERICENTER":79.8571,"MEAN_ANOMALY":280.2562,"EPHEMERIS_TYPE":0,"CLASSIFICATION_TYPE":"U","NORAD_CAT_ID":62234,"ELEMENT_SET_NO":999,"REV_AT_EPOCH":4704,"BSTAR":0.0014959525,"MEAN_MOTION_DOT":0.00044273,"MEAN_MOTION_DDOT":0},{"OBJECT_NAME":"STARLINK-32631","OBJECT_ID":"2024-231T","EPOCH":"2025-09-29T04:57:58.604256","MEAN_MOTION":15.37767195,"ECCENTRICITY":0.00014548,"INCLINATION":53.1583,"RA_OF_ASC_NODE":238.4178,"ARG_OF_PERICENTER":109.597,"MEAN_ANOMALY":250.5192,"EPHEMERIS_TYPE":0,"CLASSIFICATION_TYPE":"U","NORAD_CAT_ID":62235,"ELEMENT_SET_NO":999,"REV_AT_EPOCH":4719,"BSTAR":0.0019732147,"MEAN_MOTION_DOT":0.00074631,"MEAN_MOTION_DDOT":0},{"OBJECT_NAME":"STARLINK-32641","OBJECT_ID":"2024-231U","EPOCH":"2025-09-29T05:31:36.407136","MEAN_MOTION":15.39633698,"ECCENTRICITY":0.00012457,"INCLINATION":53.1589,"RA_OF_ASC_NODE":237.843,"ARG_OF_PERICENTER":80.0419,"MEAN_ANOMALY":280.0727,"EPHEMERIS_TYPE":0,"CLASSIFICATION_TYPE":"U","NORAD_CAT_ID":62236,"ELEMENT_SET_NO":999,"REV_AT_EPOCH":4720,"BSTAR":0.0019278869,"MEAN_MOTION_DOT":0.00077537,"MEAN_MOTION_DDOT":0},{"OBJECT_NAME":"STARLINK-32632","OBJECT_ID":"2024-231V","EPOCH":"2025-09-29T05:02:16.703520","MEAN_MOTION":15.30175852,"ECCENTRICITY":0.00014858,"INCLINATION":53.1594,"RA_OF_ASC_NODE":249.7869,"ARG_OF_PERICENTER":50.2172,"MEAN_ANOMALY":309.8959,"EPHEMERIS_TYPE":0,"CLASSIFICATION_TYPE":"U","NORAD_CAT_ID":62262,"ELEMENT_SET_NO":999,"REV_AT_EPOCH":4704,"BSTAR":0.001508733,"MEAN_MOTION_DOT":0.0004456,"MEAN_MOTION_DDOT":0},{"OBJECT_NAME":"STARLINK-11496 [DTC]","OBJECT_ID":"2024-237A","EPOCH":"2025-09-29T03:47:06.909504","MEAN_MOTION":15.70956662,"ECCENTRICITY":0.00010748,"INCLINATION":42.9994,"RA_OF_ASC_NODE":310.6176,"ARG_OF_PERICENTER":243.0967,"MEAN_ANOMALY":116.9791,"EPHEMERIS_TYPE":0,"CLASSIFICATION_TYPE":"U","NORAD_CAT_ID":62267,"ELEMENT_SET_NO":999,"REV_AT_EPOCH":4764,"BSTAR":0.00065658293,"MEAN_MOTION_DOT":0.00085083,"MEAN_MOTION_DDOT":0},{"OBJECT_NAME":"STARLINK-11501 [DTC]","OBJECT_ID":"2024-237B","EPOCH":"2025-09-29T03:01:14.954592","MEAN_MOTION":15.70854366,"ECCENTRICITY":0.00014474,"INCLINATION":42.9994,"RA_OF_ASC_NODE":310.3625,"ARG_OF_PERICENTER":290.8244,"MEAN_ANOMALY":69.2468,"EPHEMERIS_TYPE":0,"CLASSIFICATION_TYPE":"U","NORAD_CAT_ID":62268,"ELEMENT_SET_NO":999,"REV_AT_EPOCH":4759,"BSTAR":0.0021968587,"MEAN_MOTION_DOT":0.00291736,"MEAN_MOTION_DDOT":0},{"OBJECT_NAME":"STARLINK-11491 [DTC]","OBJECT_ID":"2024-237C","EPOCH":"2025-09-29T02:53:36.200832","MEAN_MOTION":15.7084857,"ECCENTRICITY":0.00014768,"INCLINATION":42.9993,"RA_OF_ASC_NODE":310.3174,"ARG_OF_PERICENTER":280.5044,"MEAN_ANOMALY":79.5658,"EPHEMERIS_TYPE":0,"CLASSIFICATION_TYPE":"U","NORAD_CAT_ID":62269,"ELEMENT_SET_NO":999,"REV_AT_EPOCH":4764,"BSTAR":0.0021388992,"MEAN_MOTION_DOT":0.0028368,"MEAN_MOTION_DDOT":0},{"OBJECT_NAME":"STARLINK-11479 [DTC]","OBJECT_ID":"2024-237D","EPOCH":"2025-09-29T06:19:39.661536","MEAN_MOTION":15.70846482,"ECCENTRICITY":0.00013548,"INCLINATION":42.9997,"RA_OF_ASC_NODE":309.6799,"ARG_OF_PERICENTER":282.7532,"MEAN_ANOMALY":77.3184,"EPHEMERIS_TYPE":0,"CLASSIFICATION_TYPE":"U","NORAD_CAT_ID":62270,"ELEMENT_SET_NO":999,"REV_AT_EPOCH":4766,"BSTAR":0.002306809,"MEAN_MOTION_DOT":0.00306823,"MEAN_MOTION_DDOT":0}]
